STARLINK-37223          
1 68387U 26063H   26101.30415765  .00160284  00000+0  82004-3 0  9997
2 68387  97.2833 242.6615 0001680  75.6630 284.4825 15.80874765  2774
STARLINK-37203          
1 68388U 26063J   26101.24010217  .00173391  00000+0  88563-3 0  9993
2 68388  97.2831 242.5959 0001125 111.1358 249.0030 15.80876821  2769
STARLINK-37197          
1 68389U 26063K   26101.25002315  .00013168  00000+0  89076-4 0  9991
2 68389  97.2844 242.5909 0001414  76.6221 302.2395 15.75173754  3692
STARLINK-37193          
1 68390U 26063L   26101.25002315 -.01942727  10226-2 -62432-2 0  9997
2 68390  97.2726 242.8230 0001795  64.9903 132.9255 15.91080829  2029
STARLINK-37216          
1 68391U 26063M   26101.23784928  .00184329  00000+0  94050-3 0  9994
2 68391  97.2830 242.5993 0001602  76.3329 283.8117 15.80871035  2764
STARLINK-37215          
1 68392U 26063N   26101.23709705  .00173625  00000+0  88670-3 0  9993
2 68392  97.2829 242.6001 0001292  88.0945 272.0471 15.80879070  2763
STARLINK-37184          
1 68393U 26063P   26101.23634605  .00127817  00000+0  65698-3 0  9997
2 68393  97.2830 242.6010 0001237  86.1733 273.9677 15.80860037  2760
STARLINK-37157          
1 68394U 26063Q   26101.25002315 -.00010907  00000+0 -72398-4 0  9996
2 68394  97.2842 242.6085 0001002  85.2139 337.6442 15.75175400  3694
STARLINK-37172          
1 68395U 26063R   26101.23408891  .00300971  00000+0  15099-2 0  9998
2 68395  97.2827 242.6031 0001378  73.9938 286.1482 15.80940076  2760
STARLINK-37190          
1 68396U 26063S   26101.29814400  .00235821  00000+0  11940-2 0  9994
2 68396  97.2832 242.6685 0001518 102.3433 257.8005 15.80906611  2779
STARLINK-37194          
1 68397U 26063T   26101.23333889  .00149407  00000+0  76548-3 0  9996
2 68397  97.2829 242.6042 0001387 107.9229 252.2191 15.80872524  2760
STARLINK-37220          
1 68398U 26063U   26101.29513569  .00221423  00000+0  11228-2 0  9990
2 68398  97.2827 242.6736 0001580  93.6141 266.5308 15.80909897  2771
STARLINK-37187          
1 68399U 26063V   26101.23258871  .00149372  00000+0  76586-3 0  9998
2 68399  97.2826 242.6051 0001167  91.9713 268.1689 15.80856833  2768
STARLINK-36235          
1 68400U 26063W   26101.23108446  .00210871  00000+0  10714-2 0  9996
2 68400  97.2829 242.6068 0001212  70.0032 290.1367 15.80894957  2762
STARLINK-37175          
1 68401U 26063X   26101.23033390  .00216274  00000+0  10981-2 0  9991
2 68401  97.2829 242.6082 0001266  78.5856 281.5555 15.80894364  2760
STARLINK-36360          
1 68402U 26063Y   26101.22958171  .00196937  00000+0  10029-2 0  9990
2 68402  97.2827 242.6088 0001401 112.5176 247.6241 15.80880528  2762
