[{"OBJECT_NAME":"STARLINK-37223","OBJECT_ID":"2026-063H","EPOCH":"2026-04-11T07:17:59.220960","MEAN_MOTION":15.80874765,"ECCENTRICITY":0.00016805,"INCLINATION":97.2833,"RA_OF_ASC_NODE":242.6615,"ARG_OF_PERICENTER":75.663,"MEAN_ANOMALY":284.4825,"EPHEMERIS_TYPE":0,"CLASSIFICATION_TYPE":"U","NORAD_CAT_ID":68387,"ELEMENT_SET_NO":999,"REV_AT_EPOCH":277,"BSTAR":0.00082003551,"MEAN_MOTION_DOT":0.00160284,"MEAN_MOTION_DDOT":0},{"OBJECT_NAME":"STARLINK-37203","OBJECT_ID":"2026-063J","EPOCH":"2026-04-11T05:45:44.827488","MEAN_MOTION":15.80876821,"ECCENTRICITY":0.00011253,"INCLINATION":97.2831,"RA_OF_ASC_NODE":242.5959,"ARG_OF_PERICENTER":111.1358,"MEAN_ANOMALY":249.003,"EPHEMERIS_TYPE":0,"CLASSIFICATION_TYPE":"U","NORAD_CAT_ID":68388,"ELEMENT_SET_NO":999,"REV_AT_EPOCH":276,"BSTAR":0.0008856276,"MEAN_MOTION_DOT":0.00173391,"MEAN_MOTION_DDOT":0},{"OBJECT_NAME":"STARLINK-37197","OBJECT_ID":"2026-063K","EPOCH":"2026-04-11T06:00:02.000160","MEAN_MOTION":15.75173754,"ECCENTRICITY":0.00014144,"INCLINATION":97.2844,"RA_OF_ASC_NODE":242.5909,"ARG_OF_PERICENTER":76.6221,"MEAN_ANOMALY":302.2395,"EPHEMERIS_TYPE":0,"CLASSIFICATION_TYPE":"U","NORAD_CAT_ID":68389,"ELEMENT_SET_NO":999,"REV_AT_EPOCH":369,"BSTAR":8.907567e-5,"MEAN_MOTION_DOT":0.00013168,"MEAN_MOTION_DDOT":0},{"OBJECT_NAME":"STARLINK-37193","OBJECT_ID":"2026-063L","EPOCH":"2026-04-11T06:00:02.000160","MEAN_MOTION":15.91080829,"ECCENTRICITY":0.00017956,"INCLINATION":97.2726,"RA_OF_ASC_NODE":242.823,"ARG_OF_PERICENTER":64.9903,"MEAN_ANOMALY":132.9255,"EPHEMERIS_TYPE":0,"CLASSIFICATION_TYPE":"U","NORAD_CAT_ID":68390,"ELEMENT_SET_NO":999,"REV_AT_EPOCH":202,"BSTAR":-0.0062431778,"MEAN_MOTION_DOT":-0.01942727,"MEAN_MOTION_DDOT":0.0010226238},{"OBJECT_NAME":"STARLINK-37216","OBJECT_ID":"2026-063M","EPOCH":"2026-04-11T05:42:30.177792","MEAN_MOTION":15.80871035,"ECCENTRICITY":0.00016021,"INCLINATION":97.283,"RA_OF_ASC_NODE":242.5993,"ARG_OF_PERICENTER":76.3329,"MEAN_ANOMALY":283.8117,"EPHEMERIS_TYPE":0,"CLASSIFICATION_TYPE":"U","NORAD_CAT_ID":68391,"ELEMENT_SET_NO":999,"REV_AT_EPOCH":276,"BSTAR":0.00094049738,"MEAN_MOTION_DOT":0.00184329,"MEAN_MOTION_DDOT":0},{"OBJECT_NAME":"STARLINK-37215","OBJECT_ID":"2026-063N","EPOCH":"2026-04-11T05:41:25.185120","MEAN_MOTION":15.8087907,"ECCENTRICITY":0.0001292,"INCLINATION":97.2829,"RA_OF_ASC_NODE":242.6001,"ARG_OF_PERICENTER":88.0945,"MEAN_ANOMALY":272.0471,"EPHEMERIS_TYPE":0,"CLASSIFICATION_TYPE":"U","NORAD_CAT_ID":68392,"ELEMENT_SET_NO":999,"REV_AT_EPOCH":276,"BSTAR":0.00088670443,"MEAN_MOTION_DOT":0.00173625,"MEAN_MOTION_DDOT":0},{"OBJECT_NAME":"STARLINK-37184","OBJECT_ID":"2026-063P","EPOCH":"2026-04-11T05:40:20.298720","MEAN_MOTION":15.80860037,"ECCENTRICITY":0.00012376,"INCLINATION":97.283,"RA_OF_ASC_NODE":242.601,"ARG_OF_PERICENTER":86.1733,"MEAN_ANOMALY":273.9677,"EPHEMERIS_TYPE":0,"CLASSIFICATION_TYPE":"U","NORAD_CAT_ID":68393,"ELEMENT_SET_NO":999,"REV_AT_EPOCH":276,"BSTAR":0.00065698271,"MEAN_MOTION_DOT":0.00127817,"MEAN_MOTION_DDOT":0},{"OBJECT_NAME":"STARLINK-37157","OBJECT_ID":"2026-063Q","EPOCH":"2026-04-11T06:00:02.000160","MEAN_MOTION":15.751754,"ECCENTRICITY":0.00010026,"INCLINATION":97.2842,"RA_OF_ASC_NODE":242.6085,"ARG_OF_PERICENTER":85.2139,"MEAN_ANOMALY":337.6442,"EPHEMERIS_TYPE":0,"CLASSIFICATION_TYPE":"U","NORAD_CAT_ID":68394,"ELEMENT_SET_NO":999,"REV_AT_EPOCH":369,"BSTAR":-7.2397977e-5,"MEAN_MOTION_DOT":-0.00010907,"MEAN_MOTION_DDOT":0},{"OBJECT_NAME":"STARLINK-37172","OBJECT_ID":"2026-063R","EPOCH":"2026-04-11T05:37:05.281824","MEAN_MOTION":15.80940076,"ECCENTRICITY":0.00013785,"INCLINATION":97.2827,"RA_OF_ASC_NODE":242.6031,"ARG_OF_PERICENTER":73.9938,"MEAN_ANOMALY":286.1482,"EPHEMERIS_TYPE":0,"CLASSIFICATION_TYPE":"U","NORAD_CAT_ID":68395,"ELEMENT_SET_NO":999,"REV_AT_EPOCH":276,"BSTAR":0.0015098583,"MEAN_MOTION_DOT":0.00300971,"MEAN_MOTION_DDOT":0},{"OBJECT_NAME":"STARLINK-37190","OBJECT_ID":"2026-063S","EPOCH":"2026-04-11T07:09:19.641600","MEAN_MOTION":15.80906611,"ECCENTRICITY":0.00015182,"INCLINATION":97.2832,"RA_OF_ASC_NODE":242.6685,"ARG_OF_PERICENTER":102.3433,"MEAN_ANOMALY":257.8005,"EPHEMERIS_TYPE":0,"CLASSIFICATION_TYPE":"U","NORAD_CAT_ID":68396,"ELEMENT_SET_NO":999,"REV_AT_EPOCH":277,"BSTAR":0.0011939595,"MEAN_MOTION_DOT":0.00235821,"MEAN_MOTION_DDOT":0},{"OBJECT_NAME":"STARLINK-37194","OBJECT_ID":"2026-063T","EPOCH":"2026-04-11T05:36:00.480096","MEAN_MOTION":15.80872524,"ECCENTRICITY":0.0001387,"INCLINATION":97.2829,"RA_OF_ASC_NODE":242.6042,"ARG_OF_PERICENTER":107.9229,"MEAN_ANOMALY":252.2191,"EPHEMERIS_TYPE":0,"CLASSIFICATION_TYPE":"U","NORAD_CAT_ID":68397,"ELEMENT_SET_NO":999,"REV_AT_EPOCH":276,"BSTAR":0.00076548241,"MEAN_MOTION_DOT":0.00149407,"MEAN_MOTION_DDOT":0},{"OBJECT_NAME":"STARLINK-37220","OBJECT_ID":"2026-063U","EPOCH":"2026-04-11T07:04:59.723616","MEAN_MOTION":15.80909897,"ECCENTRICITY":0.00015805,"INCLINATION":97.2827,"RA_OF_ASC_NODE":242.6736,"ARG_OF_PERICENTER":93.6141,"MEAN_ANOMALY":266.5308,"EPHEMERIS_TYPE":0,"CLASSIFICATION_TYPE":"U","NORAD_CAT_ID":68398,"ELEMENT_SET_NO":999,"REV_AT_EPOCH":277,"BSTAR":0.0011228015,"MEAN_MOTION_DOT":0.00221423,"MEAN_MOTION_DDOT":0},{"OBJECT_NAME":"STARLINK-37187","OBJECT_ID":"2026-063V","EPOCH":"2026-04-11T05:34:55.664544","MEAN_MOTION":15.80856833,"ECCENTRICITY":0.00011675,"INCLINATION":97.2826,"RA_OF_ASC_NODE":242.6051,"ARG_OF_PERICENTER":91.9713,"MEAN_ANOMALY":268.1689,"EPHEMERIS_TYPE":0,"CLASSIFICATION_TYPE":"U","NORAD_CAT_ID":68399,"ELEMENT_SET_NO":999,"REV_AT_EPOCH":276,"BSTAR":0.0007658623,"MEAN_MOTION_DOT":0.00149372,"MEAN_MOTION_DDOT":0},{"OBJECT_NAME":"STARLINK-36235","OBJECT_ID":"2026-063W","EPOCH":"2026-04-11T05:32:45.697344","MEAN_MOTION":15.80894957,"ECCENTRICITY":0.00012126,"INCLINATION":97.2829,"RA_OF_ASC_NODE":242.6068,"ARG_OF_PERICENTER":70.0032,"MEAN_ANOMALY":290.1367,"EPHEMERIS_TYPE":0,"CLASSIFICATION_TYPE":"U","NORAD_CAT_ID":68400,"ELEMENT_SET_NO":999,"REV_AT_EPOCH":276,"BSTAR":0.0010713713,"MEAN_MOTION_DOT":0.00210871,"MEAN_MOTION_DDOT":0},{"OBJECT_NAME":"STARLINK-37175","OBJECT_ID":"2026-063X","EPOCH":"2026-04-11T05:31:40.848960","MEAN_MOTION":15.80894364,"ECCENTRICITY":0.00012664,"INCLINATION":97.2829,"RA_OF_ASC_NODE":242.6082,"ARG_OF_PERICENTER":78.5856,"MEAN_ANOMALY":281.5555,"EPHEMERIS_TYPE":0,"CLASSIFICATION_TYPE":"U","NORAD_CAT_ID":68401,"ELEMENT_SET_NO":999,"REV_AT_EPOCH":276,"BSTAR":0.0010981438,"MEAN_MOTION_DOT":0.00216274,"MEAN_MOTION_DDOT":0},{"OBJECT_NAME":"STARLINK-36360","OBJECT_ID":"2026-063Y","EPOCH":"2026-04-11T05:30:35.859744","MEAN_MOTION":15.80880528,"ECCENTRICITY":0.00014013,"INCLINATION":97.2827,"RA_OF_ASC_NODE":242.6088,"ARG_OF_PERICENTER":112.5176,"MEAN_ANOMALY":247.6241,"EPHEMERIS_TYPE":0,"CLASSIFICATION_TYPE":"U","NORAD_CAT_ID":68402,"ELEMENT_SET_NO":999,"REV_AT_EPOCH":276,"BSTAR":0.0010028921,"MEAN_MOTION_DOT":0.00196937,"MEAN_MOTION_DDOT":0}]
